ONEWEB-0603             
1 54667U 22166AB  23326.35278509  .00000051  00000+0  92966-4 0  9991
2 54667  87.9254  70.6708 0002048  89.9289 270.2079 13.21825821 48048
ONEWEB-0604             
1 54668U 22166AC  23325.81029410  .00000011  00000+0 -38218-5 0  9995
2 54668  87.9245  70.7736 0001863  83.8219 276.3127 13.21824969 47942
ONEWEB-0605             
1 54669U 22166AD  23325.80399831 -.00000020  00000+0 -78817-4 0  9991
2 54669  87.9261  70.8039 0002436  95.3596 264.7816 13.21825359 47547
ONEWEB-0606             
1 54670U 22166AE  23326.35593552 -.00000019  00000+0 -78693-4 0  9990
2 54670  87.9255  70.6779 0001562 109.8767 250.2535 13.21825731 48139
ONEWEB-0607             
1 54671U 22166AF  23326.32281953  .00000122  00000+0  26271-3 0  9994
2 54671  87.9246  70.6712 0001880  93.0892 267.0457 13.21828551 48102
ONEWEB-0608             
1 54672U 22166AG  23325.79924156 -.00000181  00000+0 -46917-3 0  9990
2 54672  87.9252  70.7827 0002347  91.0882 269.0521 13.21827207 48048
ONEWEB-0610             
1 54673U 22166AH  23325.85601559 -.00000350  00000+0 -87795-3 0  9994
2 54673  87.9255  70.7720 0002225  93.4865 266.6523 13.21825788 47963
ONEWEB-0611             
1 54674U 22166AJ  23326.37958165 -.00000030  00000+0 -10402-3 0  9997
2 54674  87.9253  70.6691 0001248 110.8332 249.2936 13.21827881 48024
